[{"OBJECT_NAME":"SUPERVIEW-1 03","OBJECT_ID":"2018-002A","EPOCH":"2026-03-09T22:14:33.880992","MEAN_MOTION":15.35916978,"ECCENTRICITY":0.00509393,"INCLINATION":97.3162,"RA_OF_ASC_NODE":154.1458,"ARG_OF_PERICENTER":177.0269,"MEAN_ANOMALY":183.1288,"EPHEMERIS_TYPE":0,"CLASSIFICATION_TYPE":"U","NORAD_CAT_ID":43099,"ELEMENT_SET_NO":999,"REV_AT_EPOCH":45311,"BSTAR":0.00062641306,"MEAN_MOTION_DOT":0.00022818,"MEAN_MOTION_DDOT":0},{"OBJECT_NAME":"STARLINK-34382","OBJECT_ID":"2025-139D","EPOCH":"2026-03-09T10:52:04.623456","MEAN_MOTION":15.30185357,"ECCENTRICITY":0.00012072,"INCLINATION":53.1577,"RA_OF_ASC_NODE":128.4386,"ARG_OF_PERICENTER":68.0402,"MEAN_ANOMALY":292.0727,"EPHEMERIS_TYPE":0,"CLASSIFICATION_TYPE":"U","NORAD_CAT_ID":64667,"ELEMENT_SET_NO":999,"REV_AT_EPOCH":4024,"BSTAR":0.000723606,"MEAN_MOTION_DOT":0.00021123,"MEAN_MOTION_DDOT":0}]
